NUVIEW BRAVO            
1 62457U 24252D   26170.52007537 -.00000221  00000+0  00000+0 0  9998
2 62457   0.0730 148.3355 0002003 335.0483 248.4616  1.00271888  3814
THURAYA-4               
1 62483U 25001A   26169.04821201  .00000133  00000+0  00000+0 0  9998
2 62483   0.0270  66.4492 0000193 212.2121  49.2922  1.00272366  4187
SHIJIAN-25 (SJ-25)      
1 62485U 25002A   26170.75248455 -.00000358  00000+0  00000+0 0  9995
2 62485   5.1202  61.1532 0052036 173.4051  71.5038  1.00262116  5381
TJS-14                  
1 62804U 25017A   26170.61141199  .00000110  00000+0  00000+0 0  9993
2 62804   0.7761 295.8304 0000876 283.4717 287.0659  1.00275646  5291
SPAINSAT NG I           
1 62852U 25021A   26169.54418663  .00000145  00000+0  00000+0 0  9992
2 62852   0.0184   1.2360 0000168 289.9037 200.5362  1.00270022  4009
QZS-6 (MICHIBIKI-6)     
1 62876U 25023A   26170.34046359 -.00000239  00000+0  00000+0 0  9994
2 62876   0.0589  72.7803 0001833  19.4871  28.3778  1.00270223  4977
ZHONGXING-10R           
1 63075U 25036A   26170.59392608 -.00000358  00000+0  00000+0 0  9990
2 63075   0.0086 320.3152 0003599 177.6667  94.1819  1.00271007  4980
TJS-15                  
1 63157U 25045A   26170.76765458 -.00000270  00000+0  00000+0 0  9990
2 63157   0.2929  85.4692 0004637 298.6464 254.6176  1.00270698  4782
TIANLIAN 2-04           
1 63361U 25062A   26170.62584965 -.00000141  00000+0  00000+0 0  9990
2 63361   4.3673 274.4060 0031601  10.4087 288.3969  1.00271928  4625
TJS-16                  
1 63397U 25064A   26170.71089339 -.00000111  00000+0  00000+0 0  9993
2 63397   1.1057  81.4481 0003316 291.9066 311.1070  1.00271600  4415
TJS-17                  
1 63524U 25073A   26170.71167340 -.00000075  00000+0  00000+0 0  9993
2 63524   1.0716  82.6782 0002058 300.7675 305.2332  1.00272517  4314
TIANLIAN 2-05           
1 63662U 25084A   26170.61184532  .00000118  00000+0  00000+0 0  9996
2 63662   4.4441 279.8102 0003171 148.4671  80.1622  1.00271884  4402
TJS-19                  
1 63924U 25097A   26170.76933219 -.00000282  00000+0  00000+0 0  9994
2 63924   3.2813 317.4993 0002894 247.7476 120.8851  1.00275756  4179
CHINASAT 3B             
1 64062U 25106A   26169.62197517 -.00000051  00000+0  00000+0 0  9999
2 64062   0.0297 110.9581 0003026  13.9280 173.1884  1.00271660  4073
SXM-10                  
1 64290U 25122A   26169.65801770 -.00000023  00000+0  00000+0 0  9995
2 64290   0.0219  34.1784 0002018 327.1766  26.2533  1.00269699  3696
COSMOS 2589             
1 64467U 25131A   26170.77238926 -.00000296  00000+0  00000+0 0  9995
2 64467   0.0416  86.6775 0000210  22.0919 175.2579  1.00271484  3584
CHINASAT 9C             
1 64470U 25132A   26170.12705193 -.00000253  00000+0  00000+0 0  9997
2 64470   0.0144  44.3802 0002661  39.7638 321.1171  1.00268513  4167
MTG-S1                  
1 64723U 25143A   26169.39513119 -.00000028  00000+0  00000+0 0  9992
2 64723   0.6020 339.2639 0003993  77.2395 348.9838  1.00323776  3436
DROR 1                  
1 64784U 25148A   26170.39312257 -.00000041  00000+0  00000+0 0  9991
2 64784   0.0414  70.5956 0002617 319.3358  15.1998  1.00271037  3311
SHIYAN-29               
1 65486U 25196A   26170.05608662 -.00000285  00000+0  00000+0 0  9995
2 65486  28.8236  18.5119 0012575 177.3619 186.2317  1.00284876  2904
NUSANTARA LIMA (NUSANT*)
1 65588U 25205A   26170.27366112 -.00000364  00000+0  00000+0 0  9992
2 65588   0.0365 155.4978 0000084 300.8734  22.4936  1.00269968  2744
TJS-20                  
1 66142U 25238A   26170.40629596  .00000017  00000+0  00000+0 0  9992
2 66142   5.4637 299.5519 0004646 164.4638  12.3581  1.00275501  2359
CMS-03 (GSAT-7R)        
1 66311U 25249B   26170.55118884 -.00000083  00000+0  00000+0 0  9995
2 66311   0.0135  56.2752 0001644  26.0008  97.9076  1.00271330  2373
VIASAT-3 F2             
1 66454U 25261A   26169.87922293 -.00000240  00000+0  00000+0 0  9992
2 66454   0.0414 171.6555 0000036 316.3499  16.6510  1.00270536  2814
SHIJIAN-28 (SJ-28)      
1 66549U 25277A   26170.53468097 -.00000366  00000+0  00000+0 0  9995
2 66549   4.5312 272.0982 0001194  39.4159 265.4899  1.00276396  2170
TJS-22                  
1 66990U 25290A   26169.87148462 -.00000013  00000+0  00000+0 0  9995
2 66990   1.5248 286.5944 0001946 330.3738  30.3754  1.00273893  2048
TJS-23                  
1 67226U 25306A   26169.59784026  .00000012  00000+0  00000+0 0  9995
2 67226   5.5850 297.4791 0005414 171.6767 188.4971  1.00275797  1902
FENGYUN 4C              
1 67246U 25312A   26169.79154697 -.00000329  00000+0  00000+0 0  9993
2 67246   0.0467 138.8083 0000363  71.9030 114.2657  1.00271531  1790
SHIJIAN-29A (SJ-29A)    
1 67302U 25315A   26170.77140685 -.00000073  00000+0  00000+0 0  9997
2 67302   3.4054  95.0430 0003244  24.2378 139.5882  1.00270098  1640
SHIJIAN-29B (SJ-29B)    
1 67403U 25315C   26170.64319110 -.00000074  00000+0  00000+0 0  9997
2 67403   3.4039  95.0387 0003992  34.2044  83.3822  1.00270167  1712
ELEKTRO-L 5             
1 67756U 26028A   26170.04632936 -.00000104  00000+0  00000+0 0  9992
2 67756   0.2484 312.3029 0001750 179.8010 227.8993  1.00272310  1276
JAM-E JAM 1             
1 67757U 26028B   26170.54321547  .00000150  00000+0  00000+0 0  9991
2 67757   0.2544 303.1943 0001101 293.1255 261.0021  1.00276986  1149
