OBJECT_NAME,OBJECT_ID,EPOCH,MEAN_MOTION,ECCENTRICITY,INCLINATION,RA_OF_ASC_NODE,ARG_OF_PERICENTER,MEAN_ANOMALY,EPHEMERIS_TYPE,CLASSIFICATION_TYPE,NORAD_CAT_ID,ELEMENT_SET_NO,REV_AT_EPOCH,BSTAR,MEAN_MOTION_DOT,MEAN_MOTION_DDOT
NUVIEW BRAVO,2024-252D,2026-06-19T12:28:54.511968,1.00271888,.00020031,0.0730,148.3355,335.0483,248.4616,0,U,62457,999,381,0,-.221E-5,0
THURAYA-4,2025-001A,2026-06-18T01:09:25.517664,1.00272366,.00001932,0.0270,66.4492,212.2121,49.2922,0,U,62483,999,418,0,.133E-5,0
SHIJIAN-25 (SJ-25),2025-002A,2026-06-19T18:03:34.665120,1.00262116,.0052036,5.1202,61.1532,173.4051,71.5038,0,U,62485,999,538,0,-.358E-5,0
TJS-14,2025-017A,2026-06-19T14:40:25.995936,1.00275646,.00008768,0.7761,295.8304,283.4717,287.0659,0,U,62804,999,529,0,.11E-5,0
SPAINSAT NG I,2025-021A,2026-06-18T13:03:37.724832,1.00270022,.0000168,0.0184,1.2360,289.9037,200.5362,0,U,62852,999,400,0,.145E-5,0
QZS-6 (MICHIBIKI-6),2025-023A,2026-06-19T08:10:16.054176,1.00270223,.0001833,0.0589,72.7803,19.4871,28.3778,0,U,62876,999,497,0,-.239E-5,0
ZHONGXING-10R,2025-036A,2026-06-19T14:15:15.213312,1.00271007,.00035997,0.0086,320.3152,177.6667,94.1819,0,U,63075,999,498,0,-.358E-5,0
TJS-15,2025-045A,2026-06-19T18:25:25.355712,1.00270698,.0004637,0.2929,85.4692,298.6464,254.6176,0,U,63157,999,478,0,-.27E-5,0
TIANLIAN 2-04,2025-062A,2026-06-19T15:01:13.409760,1.00271928,.00316016,4.3673,274.4060,10.4087,288.3969,0,U,63361,999,462,0,-.141E-5,0
TJS-16,2025-064A,2026-06-19T17:03:41.188896,1.00271600,.0003316,1.1057,81.4481,291.9066,311.1070,0,U,63397,999,441,0,-.111E-5,0
TJS-17,2025-073A,2026-06-19T17:04:48.581760,1.00272517,.0002058,1.0716,82.6782,300.7675,305.2332,0,U,63524,999,431,0,-.75E-6,0
TIANLIAN 2-05,2025-084A,2026-06-19T14:41:03.435648,1.00271884,.00031711,4.4441,279.8102,148.4671,80.1622,0,U,63662,999,440,0,.118E-5,0
TJS-19,2025-097A,2026-06-19T18:27:50.301216,1.00275756,.0002894,3.2813,317.4993,247.7476,120.8851,0,U,63924,999,417,0,-.282E-5,0
CHINASAT 3B,2025-106A,2026-06-18T14:55:38.654688,1.00271660,.00030262,0.0297,110.9581,13.9280,173.1884,0,U,64062,999,407,0,-.51E-6,0
SXM-10,2025-122A,2026-06-18T15:47:32.729280,1.00269699,.0002018,0.0219,34.1784,327.1766,26.2533,0,U,64290,999,369,0,-.23E-6,0
COSMOS 2589,2025-131A,2026-06-19T18:32:14.432064,1.00271484,.000021,0.0416,86.6775,22.0919,175.2579,0,U,64467,999,358,0,-.296E-5,0
CHINASAT 9C,2025-132A,2026-06-19T03:02:57.286752,1.00268513,.00026611,0.0144,44.3802,39.7638,321.1171,0,U,64470,999,416,0,-.253E-5,0
MTG-S1,2025-143A,2026-06-18T09:28:59.334816,1.00323776,.0003993,0.6020,339.2639,77.2395,348.9838,0,U,64723,999,343,0,-.28E-6,0
DROR 1,2025-148A,2026-06-19T09:26:05.790048,1.00271037,.00026179,0.0414,70.5956,319.3358,15.1998,0,U,64784,999,331,0,-.41E-6,0
SHIYAN-29,2025-196A,2026-06-19T01:20:45.883968,1.00284876,.00125751,28.8236,18.5119,177.3619,186.2317,0,U,65486,999,290,0,-.285E-5,0
NUSANTARA LIMA (NUSANTARA 5),2025-205A,2026-06-19T06:34:04.320768,1.00269968,.00000845,0.0365,155.4978,300.8734,22.4936,0,U,65588,999,274,0,-.364E-5,0
TJS-20,2025-238A,2026-06-19T09:45:03.970944,1.00275501,.00046465,5.4637,299.5519,164.4638,12.3581,0,U,66142,999,235,0,.17E-6,0
CMS-03 (GSAT-7R),2025-249B,2026-06-19T13:13:42.715776,1.00271330,.00016448,0.0135,56.2752,26.0008,97.9076,0,U,66311,999,237,0,-.83E-6,0
VIASAT-3 F2,2025-261A,2026-06-18T21:06:04.861152,1.00270536,.0000036,0.0414,171.6555,316.3499,16.6510,0,U,66454,999,281,0,-.24E-5,0
SHIJIAN-28 (SJ-28),2025-277A,2026-06-19T12:49:56.435808,1.00276396,.00011946,4.5312,272.0982,39.4159,265.4899,0,U,66549,999,217,0,-.366E-5,0
TJS-22,2025-290A,2026-06-18T20:54:56.271168,1.00273893,.0001946,1.5248,286.5944,330.3738,30.3754,0,U,66990,999,204,0,-.13E-6,0
TJS-23,2025-306A,2026-06-18T14:20:53.398464,1.00275797,.00054144,5.5850,297.4791,171.6767,188.4971,0,U,67226,999,190,0,.12E-6,0
FENGYUN 4C,2025-312A,2026-06-18T18:59:49.658208,1.00271531,.00003637,0.0467,138.8083,71.9030,114.2657,0,U,67246,999,179,0,-.329E-5,0
SHIJIAN-29A (SJ-29A),2025-315A,2026-06-19T18:30:49.551840,1.00270098,.0003244,3.4054,95.0430,24.2378,139.5882,0,U,67302,999,164,0,-.73E-6,0
SHIJIAN-29B (SJ-29B),2025-315C,2026-06-19T15:26:11.711040,1.00270167,.0003992,3.4039,95.0387,34.2044,83.3822,0,U,67403,999,171,0,-.74E-6,0
ELEKTRO-L 5,2026-028A,2026-06-19T01:06:42.856704,1.00272310,.00017506,0.2484,312.3029,179.8010,227.8993,0,U,67756,999,127,0,-.104E-5,0
JAM-E JAM 1,2026-028B,2026-06-19T13:02:13.816608,1.00276986,.00011014,0.2544,303.1943,293.1255,261.0021,0,U,67757,999,114,0,.15E-5,0
